KUIPER-00176            
1 65788U 25217AC  25317.16671295 -.00722711  00000+0 -24878-1 0  9997
2 65788  51.8740 207.3265 0000318 222.7960 231.8290 15.32146836  5623
KUIPER-00101            
1 65947U 25228A   25317.16671295 -.00625152  00000+0 -23968-1 0  9996
2 65947  51.8821 163.2705 0005655 237.3511  44.8490 15.28291495  5555
KUIPER-00113            
1 65948U 25228B   25316.57177266  .00105472  00000+0  29764-2 0  9997
2 65948  51.8752 165.8574 0005988 241.5321 118.5062 15.35525529  5781
KUIPER-00117            
1 65949U 25228C   25317.16671295 -.00359818  00000+0 -11850-1 0  9998
2 65949  51.8798 163.0220 0007269 245.3603 144.7098 15.32419747  5308
KUIPER-00121            
1 65950U 25228D   25316.97495075  .00058975  00000+0  17168-2 0  9995
2 65950  51.8808 164.0609 0005760 256.5274 103.5070 15.34834798  5847
KUIPER-00122            
1 65951U 25228E   25317.16671295 -.00453169  00000+0 -20769-1 0  9994
2 65951  51.8833 163.7535 0006455 275.3998 140.5351 15.22021268  4494
KUIPER-00123            
1 65952U 25228F   25317.16671295 -.00511420  00000+0 -24193-1 0  9995
2 65952  51.8838 163.7698 0005909 259.5403 104.8587 15.21223337  2793
KUIPER-00124            
1 65953U 25228G   25316.97840214  .00068581  00000+0  20163-2 0  9990
2 65953  51.8809 164.0794 0005178 272.7485  87.2908 15.34456675  5845
