<?xml version="1.0" encoding="UTF-8"?>
<ndm xmlns:xsi="http://www.w3.org/2001/XMLSchema-instance" xsi:noNamespaceSchemaLocation="https://sanaregistry.org/r/ndmxml_unqualified/ndmxml-2.0.0-master-2.0.xsd">
<omm id="CCSDS_OMM_VERS" version="2.0">
<header><CREATION_DATE/><ORIGINATOR/></header><body><segment><metadata><OBJECT_NAME>KUIPER-00176</OBJECT_NAME><OBJECT_ID>2025-217AC</OBJECT_ID><CENTER_NAME>EARTH</CENTER_NAME><REF_FRAME>TEME</REF_FRAME><TIME_SYSTEM>UTC</TIME_SYSTEM><MEAN_ELEMENT_THEORY>SGP4</MEAN_ELEMENT_THEORY></metadata><data><meanElements><EPOCH>2025-11-13T04:00:03.998880</EPOCH><MEAN_MOTION>15.32146836</MEAN_MOTION><ECCENTRICITY>.0000318</ECCENTRICITY><INCLINATION>51.8740</INCLINATION><RA_OF_ASC_NODE>207.3265</RA_OF_ASC_NODE><ARG_OF_PERICENTER>222.7960</ARG_OF_PERICENTER><MEAN_ANOMALY>231.8290</MEAN_ANOMALY></meanElements><tleParameters><EPHEMERIS_TYPE>0</EPHEMERIS_TYPE><CLASSIFICATION_TYPE>U</CLASSIFICATION_TYPE><NORAD_CAT_ID>65788</NORAD_CAT_ID><ELEMENT_SET_NO>999</ELEMENT_SET_NO><REV_AT_EPOCH>562</REV_AT_EPOCH><BSTAR>-.24878E-1</BSTAR><MEAN_MOTION_DOT>-.722711E-2</MEAN_MOTION_DOT><MEAN_MOTION_DDOT>0</MEAN_MOTION_DDOT></tleParameters></data></segment></body></omm>
<omm id="CCSDS_OMM_VERS" version="2.0">
<header><CREATION_DATE/><ORIGINATOR/></header><body><segment><metadata><OBJECT_NAME>KUIPER-00101</OBJECT_NAME><OBJECT_ID>2025-228A</OBJECT_ID><CENTER_NAME>EARTH</CENTER_NAME><REF_FRAME>TEME</REF_FRAME><TIME_SYSTEM>UTC</TIME_SYSTEM><MEAN_ELEMENT_THEORY>SGP4</MEAN_ELEMENT_THEORY></metadata><data><meanElements><EPOCH>2025-11-13T04:00:03.998880</EPOCH><MEAN_MOTION>15.28291495</MEAN_MOTION><ECCENTRICITY>.0005655</ECCENTRICITY><INCLINATION>51.8821</INCLINATION><RA_OF_ASC_NODE>163.2705</RA_OF_ASC_NODE><ARG_OF_PERICENTER>237.3511</ARG_OF_PERICENTER><MEAN_ANOMALY>44.8490</MEAN_ANOMALY></meanElements><tleParameters><EPHEMERIS_TYPE>0</EPHEMERIS_TYPE><CLASSIFICATION_TYPE>U</CLASSIFICATION_TYPE><NORAD_CAT_ID>65947</NORAD_CAT_ID><ELEMENT_SET_NO>999</ELEMENT_SET_NO><REV_AT_EPOCH>555</REV_AT_EPOCH><BSTAR>-.23968E-1</BSTAR><MEAN_MOTION_DOT>-.625152E-2</MEAN_MOTION_DOT><MEAN_MOTION_DDOT>0</MEAN_MOTION_DDOT></tleParameters></data></segment></body></omm>
<omm id="CCSDS_OMM_VERS" version="2.0">
<header><CREATION_DATE/><ORIGINATOR/></header><body><segment><metadata><OBJECT_NAME>KUIPER-00113</OBJECT_NAME><OBJECT_ID>2025-228B</OBJECT_ID><CENTER_NAME>EARTH</CENTER_NAME><REF_FRAME>TEME</REF_FRAME><TIME_SYSTEM>UTC</TIME_SYSTEM><MEAN_ELEMENT_THEORY>SGP4</MEAN_ELEMENT_THEORY></metadata><data><meanElements><EPOCH>2025-11-12T13:43:21.157824</EPOCH><MEAN_MOTION>15.35525529</MEAN_MOTION><ECCENTRICITY>.00059882</ECCENTRICITY><INCLINATION>51.8752</INCLINATION><RA_OF_ASC_NODE>165.8574</RA_OF_ASC_NODE><ARG_OF_PERICENTER>241.5321</ARG_OF_PERICENTER><MEAN_ANOMALY>118.5062</MEAN_ANOMALY></meanElements><tleParameters><EPHEMERIS_TYPE>0</EPHEMERIS_TYPE><CLASSIFICATION_TYPE>U</CLASSIFICATION_TYPE><NORAD_CAT_ID>65948</NORAD_CAT_ID><ELEMENT_SET_NO>999</ELEMENT_SET_NO><REV_AT_EPOCH>578</REV_AT_EPOCH><BSTAR>.2976411E-2</BSTAR><MEAN_MOTION_DOT>.105472E-2</MEAN_MOTION_DOT><MEAN_MOTION_DDOT>0</MEAN_MOTION_DDOT></tleParameters></data></segment></body></omm>
<omm id="CCSDS_OMM_VERS" version="2.0">
<header><CREATION_DATE/><ORIGINATOR/></header><body><segment><metadata><OBJECT_NAME>KUIPER-00117</OBJECT_NAME><OBJECT_ID>2025-228C</OBJECT_ID><CENTER_NAME>EARTH</CENTER_NAME><REF_FRAME>TEME</REF_FRAME><TIME_SYSTEM>UTC</TIME_SYSTEM><MEAN_ELEMENT_THEORY>SGP4</MEAN_ELEMENT_THEORY></metadata><data><meanElements><EPOCH>2025-11-13T04:00:03.998880</EPOCH><MEAN_MOTION>15.32419747</MEAN_MOTION><ECCENTRICITY>.0007269</ECCENTRICITY><INCLINATION>51.8798</INCLINATION><RA_OF_ASC_NODE>163.0220</RA_OF_ASC_NODE><ARG_OF_PERICENTER>245.3603</ARG_OF_PERICENTER><MEAN_ANOMALY>144.7098</MEAN_ANOMALY></meanElements><tleParameters><EPHEMERIS_TYPE>0</EPHEMERIS_TYPE><CLASSIFICATION_TYPE>U</CLASSIFICATION_TYPE><NORAD_CAT_ID>65949</NORAD_CAT_ID><ELEMENT_SET_NO>999</ELEMENT_SET_NO><REV_AT_EPOCH>530</REV_AT_EPOCH><BSTAR>-.1185E-1</BSTAR><MEAN_MOTION_DOT>-.359818E-2</MEAN_MOTION_DOT><MEAN_MOTION_DDOT>0</MEAN_MOTION_DDOT></tleParameters></data></segment></body></omm>
<omm id="CCSDS_OMM_VERS" version="2.0">
<header><CREATION_DATE/><ORIGINATOR/></header><body><segment><metadata><OBJECT_NAME>KUIPER-00121</OBJECT_NAME><OBJECT_ID>2025-228D</OBJECT_ID><CENTER_NAME>EARTH</CENTER_NAME><REF_FRAME>TEME</REF_FRAME><TIME_SYSTEM>UTC</TIME_SYSTEM><MEAN_ELEMENT_THEORY>SGP4</MEAN_ELEMENT_THEORY></metadata><data><meanElements><EPOCH>2025-11-12T23:23:55.744800</EPOCH><MEAN_MOTION>15.34834798</MEAN_MOTION><ECCENTRICITY>.000576</ECCENTRICITY><INCLINATION>51.8808</INCLINATION><RA_OF_ASC_NODE>164.0609</RA_OF_ASC_NODE><ARG_OF_PERICENTER>256.5274</ARG_OF_PERICENTER><MEAN_ANOMALY>103.5070</MEAN_ANOMALY></meanElements><tleParameters><EPHEMERIS_TYPE>0</EPHEMERIS_TYPE><CLASSIFICATION_TYPE>U</CLASSIFICATION_TYPE><NORAD_CAT_ID>65950</NORAD_CAT_ID><ELEMENT_SET_NO>999</ELEMENT_SET_NO><REV_AT_EPOCH>584</REV_AT_EPOCH><BSTAR>.17168E-2</BSTAR><MEAN_MOTION_DOT>.58975E-3</MEAN_MOTION_DOT><MEAN_MOTION_DDOT>0</MEAN_MOTION_DDOT></tleParameters></data></segment></body></omm>
<omm id="CCSDS_OMM_VERS" version="2.0">
<header><CREATION_DATE/><ORIGINATOR/></header><body><segment><metadata><OBJECT_NAME>KUIPER-00122</OBJECT_NAME><OBJECT_ID>2025-228E</OBJECT_ID><CENTER_NAME>EARTH</CENTER_NAME><REF_FRAME>TEME</REF_FRAME><TIME_SYSTEM>UTC</TIME_SYSTEM><MEAN_ELEMENT_THEORY>SGP4</MEAN_ELEMENT_THEORY></metadata><data><meanElements><EPOCH>2025-11-13T04:00:03.998880</EPOCH><MEAN_MOTION>15.22021268</MEAN_MOTION><ECCENTRICITY>.0006455</ECCENTRICITY><INCLINATION>51.8833</INCLINATION><RA_OF_ASC_NODE>163.7535</RA_OF_ASC_NODE><ARG_OF_PERICENTER>275.3998</ARG_OF_PERICENTER><MEAN_ANOMALY>140.5351</MEAN_ANOMALY></meanElements><tleParameters><EPHEMERIS_TYPE>0</EPHEMERIS_TYPE><CLASSIFICATION_TYPE>U</CLASSIFICATION_TYPE><NORAD_CAT_ID>65951</NORAD_CAT_ID><ELEMENT_SET_NO>999</ELEMENT_SET_NO><REV_AT_EPOCH>449</REV_AT_EPOCH><BSTAR>-.20769E-1</BSTAR><MEAN_MOTION_DOT>-.453169E-2</MEAN_MOTION_DOT><MEAN_MOTION_DDOT>0</MEAN_MOTION_DDOT></tleParameters></data></segment></body></omm>
<omm id="CCSDS_OMM_VERS" version="2.0">
<header><CREATION_DATE/><ORIGINATOR/></header><body><segment><metadata><OBJECT_NAME>KUIPER-00123</OBJECT_NAME><OBJECT_ID>2025-228F</OBJECT_ID><CENTER_NAME>EARTH</CENTER_NAME><REF_FRAME>TEME</REF_FRAME><TIME_SYSTEM>UTC</TIME_SYSTEM><MEAN_ELEMENT_THEORY>SGP4</MEAN_ELEMENT_THEORY></metadata><data><meanElements><EPOCH>2025-11-13T04:00:03.998880</EPOCH><MEAN_MOTION>15.21223337</MEAN_MOTION><ECCENTRICITY>.0005909</ECCENTRICITY><INCLINATION>51.8838</INCLINATION><RA_OF_ASC_NODE>163.7698</RA_OF_ASC_NODE><ARG_OF_PERICENTER>259.5403</ARG_OF_PERICENTER><MEAN_ANOMALY>104.8587</MEAN_ANOMALY></meanElements><tleParameters><EPHEMERIS_TYPE>0</EPHEMERIS_TYPE><CLASSIFICATION_TYPE>U</CLASSIFICATION_TYPE><NORAD_CAT_ID>65952</NORAD_CAT_ID><ELEMENT_SET_NO>999</ELEMENT_SET_NO><REV_AT_EPOCH>279</REV_AT_EPOCH><BSTAR>-.24193E-1</BSTAR><MEAN_MOTION_DOT>-.51142E-2</MEAN_MOTION_DOT><MEAN_MOTION_DDOT>0</MEAN_MOTION_DDOT></tleParameters></data></segment></body></omm>
<omm id="CCSDS_OMM_VERS" version="2.0">
<header><CREATION_DATE/><ORIGINATOR/></header><body><segment><metadata><OBJECT_NAME>KUIPER-00124</OBJECT_NAME><OBJECT_ID>2025-228G</OBJECT_ID><CENTER_NAME>EARTH</CENTER_NAME><REF_FRAME>TEME</REF_FRAME><TIME_SYSTEM>UTC</TIME_SYSTEM><MEAN_ELEMENT_THEORY>SGP4</MEAN_ELEMENT_THEORY></metadata><data><meanElements><EPOCH>2025-11-12T23:28:53.944896</EPOCH><MEAN_MOTION>15.34456675</MEAN_MOTION><ECCENTRICITY>.0005178</ECCENTRICITY><INCLINATION>51.8809</INCLINATION><RA_OF_ASC_NODE>164.0794</RA_OF_ASC_NODE><ARG_OF_PERICENTER>272.7485</ARG_OF_PERICENTER><MEAN_ANOMALY>87.2908</MEAN_ANOMALY></meanElements><tleParameters><EPHEMERIS_TYPE>0</EPHEMERIS_TYPE><CLASSIFICATION_TYPE>U</CLASSIFICATION_TYPE><NORAD_CAT_ID>65953</NORAD_CAT_ID><ELEMENT_SET_NO>999</ELEMENT_SET_NO><REV_AT_EPOCH>584</REV_AT_EPOCH><BSTAR>.20163E-2</BSTAR><MEAN_MOTION_DOT>.68581E-3</MEAN_MOTION_DOT><MEAN_MOTION_DDOT>0</MEAN_MOTION_DDOT></tleParameters></data></segment></body></omm>

</ndm>
